CCSDS_OMM_VERS = 2.0
CREATION_DATE  = 
ORIGINATOR     = 

OBJECT_NAME    = SHIJIAN-16 (SJ-16)
OBJECT_ID      = 2013-057A
CENTER_NAME    = EARTH
REF_FRAME      = TEME
TIME_SYSTEM    = UTC
MEAN_ELEMENT_THEORY = SGP/SGP4

EPOCH          = 2025-11-26T12:12:36.019872
MEAN_MOTION    = 14.91918815
ECCENTRICITY   = .0017039
INCLINATION    = 74.9741
RA_OF_ASC_NODE = 20.3641
ARG_OF_PERICENTER = 358.3756
MEAN_ANOMALY   = 1.7374

EPHEMERIS_TYPE = 0
CLASSIFICATION_TYPE = U
NORAD_CAT_ID   = 39358
ELEMENT_SET_NO = 999
REV_AT_EPOCH   = 65611
BSTAR          = .24019E-3
MEAN_MOTION_DOT = .2408E-4
MEAN_MOTION_DDOT = 0

CCSDS_OMM_VERS = 2.0
CREATION_DATE  = 
ORIGINATOR     = 

OBJECT_NAME    = SL-4 R/B
OBJECT_ID      = 2014-021B
CENTER_NAME    = EARTH
REF_FRAME      = TEME
TIME_SYSTEM    = UTC
MEAN_ELEMENT_THEORY = SGP/SGP4

EPOCH          = 2025-11-26T10:03:55.055808
MEAN_MOTION    = 15.36072397
ECCENTRICITY   = .01031124
INCLINATION    = 51.6064
RA_OF_ASC_NODE = 119.8736
ARG_OF_PERICENTER = 87.5362
MEAN_ANOMALY   = 273.7420

EPHEMERIS_TYPE = 0
CLASSIFICATION_TYPE = U
NORAD_CAT_ID   = 39679
ELEMENT_SET_NO = 999
REV_AT_EPOCH   = 64038
BSTAR          = .3673841E-3
MEAN_MOTION_DOT = .15244E-3
MEAN_MOTION_DDOT = 0

CCSDS_OMM_VERS = 2.0
CREATION_DATE  = 
ORIGINATOR     = 

OBJECT_NAME    = ALOS-2
OBJECT_ID      = 2014-029A
CENTER_NAME    = EARTH
REF_FRAME      = TEME
TIME_SYSTEM    = UTC
MEAN_ELEMENT_THEORY = SGP/SGP4

EPOCH          = 2025-11-26T07:23:53.415168
MEAN_MOTION    = 14.79476116
ECCENTRICITY   = .00012492
INCLINATION    = 97.9241
RA_OF_ASC_NODE = 65.3885
ARG_OF_PERICENTER = 97.4263
MEAN_ANOMALY   = 262.7091

EPHEMERIS_TYPE = 0
CLASSIFICATION_TYPE = U
NORAD_CAT_ID   = 39766
ELEMENT_SET_NO = 999
REV_AT_EPOCH   = 62158
BSTAR          = -.81811734E-4
MEAN_MOTION_DOT = -.662E-5
MEAN_MOTION_DDOT = 0

CCSDS_OMM_VERS = 2.0
CREATION_DATE  = 
ORIGINATOR     = 

OBJECT_NAME    = YAOGAN-29
OBJECT_ID      = 2015-069A
CENTER_NAME    = EARTH
REF_FRAME      = TEME
TIME_SYSTEM    = UTC
MEAN_ELEMENT_THEORY = SGP/SGP4

EPOCH          = 2025-11-26T11:45:32.463648
MEAN_MOTION    = 14.82855608
ECCENTRICITY   = .0001286
INCLINATION    = 98.0235
RA_OF_ASC_NODE = 353.6084
ARG_OF_PERICENTER = 23.3378
MEAN_ANOMALY   = 336.7894

EPHEMERIS_TYPE = 0
CLASSIFICATION_TYPE = U
NORAD_CAT_ID   = 41038
ELEMENT_SET_NO = 999
REV_AT_EPOCH   = 54058
BSTAR          = .77098E-4
MEAN_MOTION_DOT = .57E-5
MEAN_MOTION_DDOT = 0

CCSDS_OMM_VERS = 2.0
CREATION_DATE  = 
ORIGINATOR     = 

OBJECT_NAME    = ASTRO-H (HITOMI)
OBJECT_ID      = 2016-012A
CENTER_NAME    = EARTH
REF_FRAME      = TEME
TIME_SYSTEM    = UTC
MEAN_ELEMENT_THEORY = SGP/SGP4

EPOCH          = 2025-11-26T06:55:47.589600
MEAN_MOTION    = 15.09198973
ECCENTRICITY   = .00096091
INCLINATION    = 31.0007
RA_OF_ASC_NODE = 303.4150
ARG_OF_PERICENTER = 11.2987
MEAN_ANOMALY   = 348.7865

EPHEMERIS_TYPE = 0
CLASSIFICATION_TYPE = U
NORAD_CAT_ID   = 41337
ELEMENT_SET_NO = 999
REV_AT_EPOCH   = 53659
BSTAR          = .227566E-3
MEAN_MOTION_DOT = .3803E-4
MEAN_MOTION_DDOT = 0

CCSDS_OMM_VERS = 2.0
CREATION_DATE  = 
ORIGINATOR     = 

OBJECT_NAME    = HXMT (HUIYAN)
OBJECT_ID      = 2017-034A
CENTER_NAME    = EARTH
REF_FRAME      = TEME
TIME_SYSTEM    = UTC
MEAN_ELEMENT_THEORY = SGP/SGP4

EPOCH          = 2025-11-26T10:51:28.789920
MEAN_MOTION    = 15.16034494
ECCENTRICITY   = .0033767
INCLINATION    = 43.0133
RA_OF_ASC_NODE = 229.9979
ARG_OF_PERICENTER = 300.9844
MEAN_ANOMALY   = 58.7688

EPHEMERIS_TYPE = 0
CLASSIFICATION_TYPE = U
NORAD_CAT_ID   = 42758
ELEMENT_SET_NO = 999
REV_AT_EPOCH   = 46686
BSTAR          = .38848E-3
MEAN_MOTION_DOT = .7481E-4
MEAN_MOTION_DDOT = 0

CCSDS_OMM_VERS = 2.0
CREATION_DATE  = 
ORIGINATOR     = 

OBJECT_NAME    = CZ-2C R/B
OBJECT_ID      = 2018-054D
CENTER_NAME    = EARTH
REF_FRAME      = TEME
TIME_SYSTEM    = UTC
MEAN_ELEMENT_THEORY = SGP/SGP4

EPOCH          = 2025-11-26T06:54:20.642688
MEAN_MOTION    = 15.70296065
ECCENTRICITY   = .00206025
INCLINATION    = 35.1358
RA_OF_ASC_NODE = 292.1375
ARG_OF_PERICENTER = 334.8689
MEAN_ANOMALY   = 25.1040

EPHEMERIS_TYPE = 0
CLASSIFICATION_TYPE = U
NORAD_CAT_ID   = 43521
ELEMENT_SET_NO = 999
REV_AT_EPOCH   = 41246
BSTAR          = .74619448E-3
MEAN_MOTION_DOT = .96413E-3
MEAN_MOTION_DDOT = 0

CCSDS_OMM_VERS = 2.0
CREATION_DATE  = 
ORIGINATOR     = 

OBJECT_NAME    = SAOCOM 1A
OBJECT_ID      = 2018-076A
CENTER_NAME    = EARTH
REF_FRAME      = TEME
TIME_SYSTEM    = UTC
MEAN_ELEMENT_THEORY = SGP/SGP4

EPOCH          = 2025-11-26T12:53:06.767232
MEAN_MOTION    = 14.82150464
ECCENTRICITY   = .0001577
INCLINATION    = 97.8858
RA_OF_ASC_NODE = 155.1945
ARG_OF_PERICENTER = 89.5536
MEAN_ANOMALY   = 270.5858

EPHEMERIS_TYPE = 0
CLASSIFICATION_TYPE = U
NORAD_CAT_ID   = 43641
ELEMENT_SET_NO = 999
REV_AT_EPOCH   = 38608
BSTAR          = .81242E-4
MEAN_MOTION_DOT = .595E-5
MEAN_MOTION_DDOT = 0

CCSDS_OMM_VERS = 2.0
CREATION_DATE  = 
ORIGINATOR     = 

OBJECT_NAME    = H-2A R/B
OBJECT_ID      = 2018-084L
CENTER_NAME    = EARTH
REF_FRAME      = TEME
TIME_SYSTEM    = UTC
MEAN_ELEMENT_THEORY = SGP/SGP4

EPOCH          = 2025-11-26T11:33:15.662592
MEAN_MOTION    = 15.36561411
ECCENTRICITY   = .0028632
INCLINATION    = 98.8788
RA_OF_ASC_NODE = 161.2021
ARG_OF_PERICENTER = 21.8755
MEAN_ANOMALY   = 338.3699

EPHEMERIS_TYPE = 0
CLASSIFICATION_TYPE = U
NORAD_CAT_ID   = 43682
ELEMENT_SET_NO = 999
REV_AT_EPOCH   = 38990
BSTAR          = .53654E-3
MEAN_MOTION_DOT = .1933E-3
MEAN_MOTION_DDOT = 0

CCSDS_OMM_VERS = 2.0
CREATION_DATE  = 
ORIGINATOR     = 

OBJECT_NAME    = SAOCOM 1B
OBJECT_ID      = 2020-059A
CENTER_NAME    = EARTH
REF_FRAME      = TEME
TIME_SYSTEM    = UTC
MEAN_ELEMENT_THEORY = SGP/SGP4

EPOCH          = 2025-11-26T12:00:54.153792
MEAN_MOTION    = 14.82159100
ECCENTRICITY   = .0001337
INCLINATION    = 97.8846
RA_OF_ASC_NODE = 154.2602
ARG_OF_PERICENTER = 89.8983
MEAN_ANOMALY   = 270.2384

EPHEMERIS_TYPE = 0
CLASSIFICATION_TYPE = U
NORAD_CAT_ID   = 46265
ELEMENT_SET_NO = 999
REV_AT_EPOCH   = 28346
BSTAR          = .83755E-4
MEAN_MOTION_DOT = .615E-5
MEAN_MOTION_DDOT = 0

CCSDS_OMM_VERS = 2.0
CREATION_DATE  = 
ORIGINATOR     = 

OBJECT_NAME    = CSS (TIANHE)
OBJECT_ID      = 2021-035A
CENTER_NAME    = EARTH
REF_FRAME      = TEME
TIME_SYSTEM    = UTC
MEAN_ELEMENT_THEORY = SGP/SGP4

EPOCH          = 2025-11-26T10:33:40.231008
MEAN_MOTION    = 15.58292363
ECCENTRICITY   = .0010768
INCLINATION    = 41.4668
RA_OF_ASC_NODE = 115.5910
ARG_OF_PERICENTER = 273.9335
MEAN_ANOMALY   = 86.0272

EPHEMERIS_TYPE = 0
CLASSIFICATION_TYPE = U
NORAD_CAT_ID   = 48274
ELEMENT_SET_NO = 999
REV_AT_EPOCH   = 26148
BSTAR          = .27628E-3
MEAN_MOTION_DOT = .21314E-3
MEAN_MOTION_DDOT = 0

CCSDS_OMM_VERS = 2.0
CREATION_DATE  = 
ORIGINATOR     = 

OBJECT_NAME    = COSMOS 2550
OBJECT_ID      = 2021-056A
CENTER_NAME    = EARTH
REF_FRAME      = TEME
TIME_SYSTEM    = UTC
MEAN_ELEMENT_THEORY = SGP/SGP4

EPOCH          = 2025-11-26T13:18:35.010432
MEAN_MOTION    = 15.33840649
ECCENTRICITY   = .0008278
INCLINATION    = 67.1434
RA_OF_ASC_NODE = 352.8916
ARG_OF_PERICENTER = 270.0952
MEAN_ANOMALY   = 89.9254

EPHEMERIS_TYPE = 0
CLASSIFICATION_TYPE = U
NORAD_CAT_ID   = 48865
ELEMENT_SET_NO = 999
REV_AT_EPOCH   = 24764
BSTAR          = .68905E-5
MEAN_MOTION_DOT = .35E-6
MEAN_MOTION_DDOT = 0

