SHIJIAN-16 (SJ-16)      
1 39358U 13057A   25330.50875023  .00002408  00000+0  24019-3 0  9999
2 39358  74.9741  20.3641 0017039 358.3756   1.7374 14.91918815656113
SL-4 R/B                
1 39679U 14021B   25330.41938722  .00015244  00000+0  36738-3 0  9996
2 39679  51.6064 119.8736 0103112  87.5362 273.7420 15.36072397640381
ALOS-2                  
1 39766U 14029A   25330.30825712 -.00000662  00000+0 -81812-4 0  9997
2 39766  97.9241  65.3885 0001249  97.4263 262.7091 14.79476116621582
YAOGAN-29               
1 41038U 15069A   25330.48995907  .00000570  00000+0  77098-4 0  9997
2 41038  98.0235 353.6084 0001286  23.3378 336.7894 14.82855608540586
ASTRO-H (HITOMI)        
1 41337U 16012A   25330.28874525  .00003803  00000+0  22757-3 0  9991
2 41337  31.0007 303.4150 0009609  11.2987 348.7865 15.09198973536590
HXMT (HUIYAN)           
1 42758U 17034A   25330.45241655  .00007481  00000+0  38848-3 0  9999
2 42758  43.0133 229.9979 0033767 300.9844  58.7688 15.16034494466862
CZ-2C R/B               
1 43521U 18054D   25330.28773892  .00096413  00000+0  74619-3 0  9994
2 43521  35.1358 292.1375 0020602 334.8689  25.1040 15.70296065412462
SAOCOM 1A               
1 43641U 18076A   25330.53688388  .00000595  00000+0  81242-4 0  9991
2 43641  97.8858 155.1945 0001577  89.5536 270.5858 14.82150464386086
H-2A R/B                
1 43682U 18084L   25330.48143128  .00019330  00000+0  53654-3 0  9999
2 43682  98.8788 161.2021 0028632  21.8755 338.3699 15.36561411389908
SAOCOM 1B               
1 46265U 20059A   25330.50062678  .00000615  00000+0  83755-4 0  9999
2 46265  97.8846 154.2602 0001337  89.8983 270.2384 14.82159100283466
CSS (TIANHE)            
1 48274U 21035A   25330.44004897  .00021314  00000+0  27628-3 0  9993
2 48274  41.4668 115.5910 0010768 273.9335  86.0272 15.58292363261482
COSMOS 2550             
1 48865U 21056A   25330.55457188  .00000035  00000+0  68905-5 0  9991
2 48865  67.1434 352.8916 0008278 270.0952  89.9254 15.33840649247645
